NORAD_CAT_ID,OBJECT_NAME,OBJECT_TYPE,EPOCH,MEAN_MOTION,ECCENTRICITY,INCLINATION,RA_OF_ASC_NODE,ARG_OF_PERICENTER,MEAN_ANOMALY,BSTAR,MEAN_MOTION_DOT,MEAN_MOTION_DDOT,TLE_LINE0,TLE_LINE1,TLE_LINE2,SEMIMAJOR_AXIS,PERIOD,APOGEE,PERIGEE,DECAYED
54075.0,STARLINK-5212,PAYLOAD,2024-03-25 21:55:23,15.08843099,0.0001462,53.2163,302.9998,81.8387,278.2771,0.00021099,3.072e-05,0.0,0 STARLINK-5212,1 54075U 22136AA  24085.91346375  .00003072  00000-0  21099-3 0  9998,2 54075  53.2163 302.9998 0001462  81.8387 278.2771 15.08843099 79165,6917.871,95.437,540.747,538.725,0.0
54075.0,STARLINK-5212,PAYLOAD,2024-03-26 13:49:15,15.0881605,9.89e-05,53.2156,300.0256,104.0418,256.0684,-0.00034235,-5.728e-05,0.0,0 STARLINK-5212,1 54075U 22136AA  24086.57587431 -.00005728  00000-0 -34235-3 0  9999,2 54075  53.2156 300.0256 0000989 104.0418 256.0684 15.08816050 79747,6917.954,95.439,540.503,539.134,0.0
54075.0,STARLINK-5212,PAYLOAD,2024-03-26 21:46:11,15.08828695,0.0001389,53.2158,298.5425,94.8423,265.2728,-0.00015589,-2.767e-05,0.0,0 STARLINK-5212,1 54075U 22136AA  24086.90707332 -.00002767  00000-0 -15589-3 0  9991,2 54075  53.2158 298.5425 0001389  94.8423 265.2728 15.08828695 79799,6917.915,95.438,540.741,538.819,0.0
54075.0,STARLINK-5212,PAYLOAD,2024-03-27 07:18:30,15.08835055,0.0001411,53.2162,296.7573,97.1127,263.0025,8.9563e-05,1.138e-05,0.0,0 STARLINK-5212,1 54075U 22136AA  24087.30451427  .00001138  00000-0  89563-4 0  9990,2 54075  53.2162 296.7573 0001411  97.1127 263.0025 15.08835055 79379,6917.896,95.438,540.737,538.784,0.0
54075.0,STARLINK-5212,PAYLOAD,2024-03-27 20:01:33,15.08877906,0.0001488,53.2165,294.3767,103.566,256.5498,0.0008993,0.00014068,0.0,0 STARLINK-5212,1 54075U 22136AA  24087.83441696  .00014068  00000-0  89930-3 0  9998,2 54075  53.2165 294.3767 0001488 103.5660 256.5498 15.08877906 79933,6917.765,95.435,540.659,538.6,0.0
54075.0,STARLINK-5212,PAYLOAD,2024-03-28 07:09:15,15.088557,0.0001418,53.2161,292.2935,99.2233,260.8919,0.00040935,6.236e-05,0.0,0 STARLINK-5212,1 54075U 22136AA  24088.29810167  .00006236  00000-0  40935-3 0  9992,2 54075  53.2161 292.2935 0001418  99.2233 260.8919 15.08855700 80007,6917.832,95.437,540.678,538.716,0.0
54075.0,STARLINK-5212,PAYLOAD,2024-03-28 19:52:21,15.08835293,0.0001451,53.2162,289.918,84.316,275.7997,-5.2746e-05,-1.127e-05,0.0,0 STARLINK-5212,1 54075U 22136AA  24088.82802991 -.00001127  00000-0 -52746-4 0  9997,2 54075  53.2162 289.9180 0001451  84.3160 275.7997 15.08835293 80088,6917.895,95.438,540.764,538.756,0.0
54075.0,STARLINK-5212,PAYLOAD,2024-03-28 23:03:07,15.08838028,0.0001471,53.2157,289.321,91.2087,268.9074,-4.9643e-05,-1.078e-05,0.0,0 STARLINK-5212,1 54075U 22136AA  24088.96050841 -.00001078  00000-0 -49643-4 0  9998,2 54075  53.2157 289.3210 0001471  91.2087 268.9074 15.08838028 79624,6917.886,95.438,540.769,538.734,0.0
54075.0,STARLINK-5212,PAYLOAD,2024-03-29 22:53:54,15.08844058,0.0001535,53.216,284.8599,91.649,268.4678,-1.1346e-05,-4.69e-06,0.0,0 STARLINK-5212,1 54075U 22136AA  24089.95410672 -.00000469  00000-0 -11346-4 0  9992,2 54075  53.2160 284.8599 0001535  91.6490 268.4678 15.08844058 79772,6917.868,95.437,540.795,538.671,0.0
54075.0,STARLINK-5212,PAYLOAD,2024-03-30 19:33:56,15.08832349,0.0001605,53.2135,280.9948,85.488,274.6295,0.00012671,1.729e-05,0.0,0 STARLINK-5212,1 54075U 22136AA  24090.81523740  .00001729  00000-0  12671-3 0  9999,2 54075  53.2135 280.9948 0001605  85.4880 274.6295 15.08832349 80384,6917.904,95.438,540.879,538.658,0.0
54075.0,STARLINK-5212,PAYLOAD,2024-03-30 22:44:42,15.08833482,0.0001415,53.2144,280.4008,83.4298,276.6855,0.00012008,1.623e-05,0.0,0 STARLINK-5212,1 54075U 22136AA  24090.94771861  .00001623  00000-0  12008-3 0  9999,2 54075  53.2144 280.4008 0001415  83.4298 276.6855 15.08833482 79927,6917.9,95.438,540.744,538.786,0.0
54075.0,STARLINK-5212,PAYLOAD,2024-03-31 13:03:11,15.08834404,0.0001372,53.2159,277.725,84.4338,275.6811,0.00021781,3.18e-05,0.0,0 STARLINK-5212,1 54075U 22136AA  24091.54387823  .00003180  00000-0  21781-3 0  9995,2 54075  53.2159 277.7250 0001372  84.4338 275.6811 15.08834404 80017,6917.897,95.438,540.712,538.813,0.0
54075.0,STARLINK-5212,PAYLOAD,2024-03-31 19:24:43,15.08839699,8.4e-05,53.2165,276.5373,76.4904,283.6182,0.0003456,5.217e-05,0.0,0 STARLINK-5212,1 54075U 22136AA  24091.80883577  .00005217  00000-0  34560-3 0  9993,2 54075  53.2165 276.5373 0000840  76.4904 283.6182 15.08839699 80051,6917.881,95.438,540.327,539.165,0.0
54075.0,STARLINK-5212,PAYLOAD,2024-04-01 12:53:58,15.08842106,0.0001464,53.2177,273.269,99.7162,260.3995,-5.454e-05,-1.156e-05,0.0,0 STARLINK-5212,1 54075U 22136AA  24092.53747882 -.00001156  00000-0 -54540-4 0  9993,2 54075  53.2177 273.2690 0001464  99.7162 260.3995 15.08842106 80643,6917.874,95.437,540.752,538.726,0.0
54075.0,STARLINK-5212,PAYLOAD,2024-04-02 11:09:22,15.08835712,0.0001374,53.2174,269.1007,90.2294,269.8856,1.7783e-05,-5e-08,0.0,0 STARLINK-5212,1 54075U 22136AA  24093.46484252 -.00000005  00000-0  17783-4 0  9994,2 54075  53.2174 269.1007 0001374  90.2294 269.8856 15.08835712 80788,6917.893,95.438,540.709,538.808,0.0
54075.0,STARLINK-5212,PAYLOAD,2024-04-02 20:41:40,15.08842542,0.0001239,53.2166,267.3173,90.0841,270.0294,6.1638e-05,6.93e-06,0.0,0 STARLINK-5212,1 54075U 22136AA  24093.86227895  .00000693  00000-0  61638-4 0  9996,2 54075  53.2166 267.3173 0001239  90.0841 270.0294 15.08842542 80362,6917.873,95.437,540.595,538.88,0.0
54075.0,STARLINK-5212,PAYLOAD,2024-04-03 11:00:09,15.08841713,0.0001301,53.2169,264.6405,94.2599,265.8541,0.00010067,1.315e-05,0.0,0 STARLINK-5212,1 54075U 22136AA  24094.45843992  .00001315  00000-0  10067-3 0  9995,2 54075  53.2169 264.6405 0001301  94.2599 265.8541 15.08841713 80455,6917.875,95.437,540.64,538.84,0.0
54075.0,STARLINK-5212,PAYLOAD,2024-04-03 20:32:27,15.08849449,0.0001207,53.2171,262.8563,96.9884,263.1245,0.00015583,2.194e-05,0.0,0 STARLINK-5212,1 54075U 22136AA  24094.85587408  .00002194  00000-0  15583-3 0  9990,2 54075  53.2171 262.8563 0001207  96.9884 263.1245 15.08849449 80999,6917.852,95.437,540.551,538.882,0.0
54075.0,STARLINK-5212,PAYLOAD,2024-04-04 10:50:56,15.08838026,0.000107,53.2169,260.1805,93.4643,266.6471,0.00011267,1.506e-05,0.0,0 STARLINK-5212,1 54075U 22136AA  24095.45204182  .00001506  00000-0  11267-3 0  9993,2 54075  53.2169 260.1805 0001070  93.4643 266.6471 15.08838026 81088,6917.886,95.438,540.492,539.011,0.0
54075.0,STARLINK-5212,PAYLOAD,2024-04-04 20:23:15,15.08841508,0.0001158,53.2171,258.3957,92.3947,267.7178,5.0779e-05,5.2e-06,0.0,0 STARLINK-5212,1 54075U 22136AA  24095.84948107  .00000520  00000-0  50779-4 0  9995,2 54075  53.2171 258.3957 0001158  92.3947 267.7178 15.08841508 80668,6917.876,95.437,540.542,538.94,0.0
54075.0,STARLINK-5212,PAYLOAD,2024-04-05 13:52:29,15.08846839,0.0001144,53.2166,255.1255,87.7743,272.338,9.3326e-05,1.198e-05,0.0,0 STARLINK-5212,1 54075U 22136AA  24096.57811463  .00001198  00000-0  93326-4 0  9997,2 54075  53.2166 255.1255 0001144  87.7743 272.3380 15.08846839 80776,6917.859,95.437,540.516,538.933,0.0
54075.0,STARLINK-5212,PAYLOAD,2024-04-05 20:14:01,15.08854378,0.0001048,53.2176,253.935,89.5108,270.6004,9.895e-05,1.288e-05,0.0,0 STARLINK-5212,1 54075U 22136AA  24096.84306867  .00001288  00000-0  98950-4 0  9992,2 54075  53.2176 253.9350 0001048  89.5108 270.6004 15.08854378 81296,6917.836,95.437,540.426,538.976,0.0
54075.0,STARLINK-5212,PAYLOAD,2024-04-06 20:04:49,15.08839189,0.000142,53.2173,249.476,86.1224,273.9931,3.2843e-05,2.35e-06,0.0,0 STARLINK-5212,1 54075U 22136AA  24097.83668068  .00000235  00000-0  32843-4 0  9996,2 54075  53.2173 249.4760 0001420  86.1224 273.9931 15.08839189 81449,6917.883,95.438,540.73,538.766,0.0
54075.0,STARLINK-5212,PAYLOAD,2024-04-07 10:23:17,15.08834048,0.0001389,53.2172,246.7986,87.071,273.0442,-6.2697e-05,-1.285e-05,0.0,0 STARLINK-5212,1 54075U 22136AA  24098.43284519 -.00001285  00000-0 -62697-4 0  9996,2 54075  53.2172 246.7986 0001389  87.0710 273.0442 15.08834048 81056,6917.899,95.438,540.724,538.803,0.0
54075.0,STARLINK-5212,PAYLOAD,2024-04-07 16:44:50,15.08838884,0.0001451,53.2171,245.6099,87.3358,272.78,2.5819e-05,1.23e-06,0.0,0 STARLINK-5212,1 54075U 22136AA  24098.69780343  .00000123  00000-0  25819-4 0  9993,2 54075  53.2171 245.6099 0001451  87.3358 272.7800 15.08838884 81099,6917.884,95.438,540.753,538.745,0.0
54075.0,STARLINK-5212,PAYLOAD,2024-04-08 02:17:09,15.08838465,0.0001316,53.2155,243.8255,92.5889,267.5254,1.7606e-05,-8e-08,0.0,0 STARLINK-5212,1 54075U 22136AA  24099.09524408 -.00000008  00000-0  17606-4 0  9994,2 54075  53.2155 243.8255 0001316  92.5889 267.5254 15.08838465 81632,6917.885,95.438,540.66,538.84,0.0
54075.0,STARLINK-5212,PAYLOAD,2024-04-08 10:14:04,15.08836667,0.0001366,53.2139,242.3378,85.9174,274.1974,0.00017887,2.56e-05,0.0,0 STARLINK-5212,1 54075U 22136AA  24099.42644631  .00002560  00000-0  17887-3 0  9996,2 54075  53.2139 242.3378 0001366  85.9174 274.1974 15.08836667 81200,6917.891,95.438,540.701,538.811,0.0
54075.0,STARLINK-5212,PAYLOAD,2024-04-08 16:35:37,15.08847602,0.0001396,53.213,241.1503,95.4623,264.6529,0.00011948,1.614e-05,0.0,0 STARLINK-5212,1 54075U 22136AA  24099.69140104  .00001614  00000-0  11948-3 0  9992,2 54075  53.2130 241.1503 0001396  95.4623 264.6529 15.08847602 81241,6917.857,95.437,540.688,538.756,0.0
54075.0,STARLINK-5212,PAYLOAD,2024-04-09 02:07:55,15.08848656,0.0001329,53.2144,239.3665,94.7469,265.3675,0.00010557,1.393e-05,0.0,0 STARLINK-5212,1 54075U 22136AA  24100.08883953  .00001393  00000-0  10557-3 0  9993,2 54075  53.2144 239.3665 0001329  94.7469 265.3675 15.08848656 81789,6917.854,95.437,540.638,538.8,0.0
54075.0,STARLINK-5212,PAYLOAD,2024-04-09 18:01:47,15.0883701,0.0001375,53.2162,236.393,93.2705,266.8444,1.2464e-05,-9e-07,0.0,0 STARLINK-5212,1 54075U 22136AA  24100.75124656 -.00000090  00000-0  12464-4 0  9999,2 54075  53.2162 236.3930 0001375  93.2705 266.8444 15.08837010 81882,6917.89,95.438,540.706,538.803,0.0
